{
  "norad_id": 48439,
  "name": "STARLINK-2583",
  "history": [
    {
      "epoch": "2026-04-13T03:35:40.858944Z",
      "apogee_km": 476.3154192280026,
      "perigee_km": 474.1304310166752,
      "latitude_deg": -1.9540448772783697e-05,
      "longitude_deg": 122.80954227277212,
      "height_km": 476.24565654754804,
      "semi_major_axis_km": 6853.359925122339,
      "eccentricity": 0.00015941,
      "inclination_deg": 53.1614,
      "raan_deg": 18.0745,
      "arg_perigee_deg": 96.567,
      "mean_anomaly_deg": 263.5512,
      "mean_motion_rev_day": 15.30197369
    },
    {
      "epoch": "2026-04-14T10:56:44.811744Z",
      "apogee_km": 476.7745875021601,
      "perigee_km": 473.6626157905657,
      "latitude_deg": -1.3977776618555411e-05,
      "longitude_deg": 5.190233762097402,
      "height_km": 476.0014483417362,
      "semi_major_axis_km": 6853.355601646363,
      "eccentricity": 0.00022704,
      "inclination_deg": 53.1611,
      "raan_deg": 12.0092,
      "arg_perigee_deg": 85.8014,
      "mean_anomaly_deg": 274.3246,
      "mean_motion_rev_day": 15.30198817
    },
    {
      "epoch": "2026-04-15T10:27:32.987808Z",
      "apogee_km": 476.0532664009843,
      "perigee_km": 474.43943168995065,
      "latitude_deg": -5.64107871339132e-05,
      "longitude_deg": 6.972109946757383,
      "height_km": 476.2416030908658,
      "semi_major_axis_km": 6853.383349045467,
      "eccentricity": 0.00011774,
      "inclination_deg": 53.1612,
      "raan_deg": 7.4575,
      "arg_perigee_deg": 96.8978,
      "mean_anomaly_deg": 263.2156,
      "mean_motion_rev_day": 15.30189524
    },
    {
      "epoch": "2026-04-16T09:58:21.063648Z",
      "apogee_km": 475.9470185590044,
      "perigee_km": 474.5544101754449,
      "latitude_deg": 2.4461633168121264e-05,
      "longitude_deg": 8.754896961345665,
      "height_km": 476.21116317484376,
      "semi_major_axis_km": 6853.387714367224,
      "eccentricity": 0.0001016,
      "inclination_deg": 53.1602,
      "raan_deg": 2.9062,
      "arg_perigee_deg": 95.1095,
      "mean_anomaly_deg": 265.0022,
      "mean_motion_rev_day": 15.30188062
    },
    {
      "epoch": "2026-04-17T22:01:34.598784Z",
      "apogee_km": 475.97929523935363,
      "perigee_km": 474.49745841537606,
      "latitude_deg": 5.830933714882778e-05,
      "longitude_deg": 179.490352646354,
      "height_km": 476.24616173826905,
      "semi_major_axis_km": 6853.375376827365,
      "eccentricity": 0.00010811,
      "inclination_deg": 53.1603,
      "raan_deg": 355.9287,
      "arg_perigee_deg": 98.4925,
      "mean_anomaly_deg": 261.6199,
      "mean_motion_rev_day": 15.30192194
    },
    {
      "epoch": "2026-04-18T08:59:56.700384Z",
      "apogee_km": 475.9348739659017,
      "perigee_km": 474.4979998843173,
      "latitude_deg": 1.4346342070502815e-05,
      "longitude_deg": 12.323892854737192,
      "height_km": 476.09990707541,
      "semi_major_axis_km": 6853.353436925109,
      "eccentricity": 0.00010483,
      "inclination_deg": 53.1604,
      "raan_deg": 353.805,
      "arg_perigee_deg": 88.8079,
      "mean_anomaly_deg": 271.3042,
      "mean_motion_rev_day": 15.30199542
    },
    {
      "epoch": "2026-04-19T19:29:07.408320Z",
      "apogee_km": 476.02591330103223,
      "perigee_km": 474.4455255519324,
      "latitude_deg": -2.4157592686003157e-05,
      "longitude_deg": -153.06105559153815,
      "height_km": 476.2072390902316,
      "semi_major_axis_km": 6853.372719426482,
      "eccentricity": 0.0001153,
      "inclination_deg": 53.1606,
      "raan_deg": 347.131,
      "arg_perigee_deg": 95.3163,
      "mean_anomaly_deg": 264.7969,
      "mean_motion_rev_day": 15.30193084
    },
    {
      "epoch": "2026-04-19T22:37:13.926720Z",
      "apogee_km": 475.970232147828,
      "perigee_km": 474.51320383238453,
      "latitude_deg": -4.3129461466895695e-05,
      "longitude_deg": 159.1748143211874,
      "height_km": 476.1347550494073,
      "semi_major_axis_km": 6853.378717990106,
      "eccentricity": 0.0001063,
      "inclination_deg": 53.161,
      "raan_deg": 346.5228,
      "arg_perigee_deg": 89.573,
      "mean_anomaly_deg": 270.5392,
      "mean_motion_rev_day": 15.30191075
    },
    {
      "epoch": "2026-04-21T18:30:42.784128Z",
      "apogee_km": 476.01170194523183,
      "perigee_km": 474.4505046912973,
      "latitude_deg": -1.9388159709130806e-05,
      "longitude_deg": -149.49146515862233,
      "height_km": 476.0339053951133,
      "semi_major_axis_km": 6853.368103318265,
      "eccentricity": 0.0001139,
      "inclination_deg": 53.1607,
      "raan_deg": 338.0293,
      "arg_perigee_deg": 82.9697,
      "mean_anomaly_deg": 277.1433,
      "mean_motion_rev_day": 15.3019463
    },
    {
      "epoch": "2026-04-22T19:35:32.749728Z",
      "apogee_km": 475.96725604257244,
      "perigee_km": 474.4060689122607,
      "latitude_deg": 6.406590447162286e-05,
      "longitude_deg": -171.5840169888145,
      "height_km": 475.98773448711415,
      "semi_major_axis_km": 6853.323662477416,
      "eccentricity": 0.0001139,
      "inclination_deg": 53.1601,
      "raan_deg": 333.1749,
      "arg_perigee_deg": 82.8469,
      "mean_anomaly_deg": 277.2662,
      "mean_motion_rev_day": 15.30209514
    },
    {
      "epoch": "2026-04-23T00:17:42.260352Z",
      "apogee_km": 475.9608212934372,
      "perigee_km": 474.38332661079494,
      "latitude_deg": 2.146023560791283e-05,
      "longitude_deg": 116.77289256278425,
      "height_km": 475.98103770797894,
      "semi_major_axis_km": 6853.309073952116,
      "eccentricity": 0.00011509,
      "inclination_deg": 53.1595,
      "raan_deg": 332.2646,
      "arg_perigee_deg": 83.504,
      "mean_anomaly_deg": 276.6092,
      "mean_motion_rev_day": 15.302144
    },
    {
      "epoch": "2026-04-24T20:11:11.868576Z",
      "apogee_km": 476.03889461794915,
      "perigee_km": 474.3872372520591,
      "latitude_deg": -3.693826617822095e-05,
      "longitude_deg": 168.10231671092626,
      "height_km": 476.22770639532257,
      "semi_major_axis_km": 6853.350065935004,
      "eccentricity": 0.0001205,
      "inclination_deg": 53.1603,
      "raan_deg": 323.77,
      "arg_perigee_deg": 98.1045,
      "mean_anomaly_deg": 262.0092,
      "mean_motion_rev_day": 15.30200671
    },
    {
      "epoch": "2026-04-25T19:42:00.751392Z",
      "apogee_km": 476.1521872697558,
      "perigee_km": 474.36756272350704,
      "latitude_deg": -3.28602230801355e-05,
      "longitude_deg": 169.88137280022255,
      "height_km": 476.2323845149088,
      "semi_major_axis_km": 6853.396874996631,
      "eccentricity": 0.0001302,
      "inclination_deg": 53.1598,
      "raan_deg": 319.2184,
      "arg_perigee_deg": 94.789,
      "mean_anomaly_deg": 265.3259,
      "mean_motion_rev_day": 15.30184994
    },
    {
      "epoch": "2026-04-26T20:46:51.322656Z",
      "apogee_km": 476.03275608358854,
      "perigee_km": 474.3820595495217,
      "latitude_deg": 4.770421343608135e-05,
      "longitude_deg": 147.78799136193993,
      "height_km": 476.05138393639345,
      "semi_major_axis_km": 6853.344407816555,
      "eccentricity": 0.00012043,
      "inclination_deg": 53.1596,
      "raan_deg": 314.3657,
      "arg_perigee_deg": 86.2386,
      "mean_anomaly_deg": 273.8753,
      "mean_motion_rev_day": 15.30202566
    },
    {
      "epoch": "2026-04-27T20:17:40.278048Z",
      "apogee_km": 476.081459908497,
      "perigee_km": 474.45994364625585,
      "latitude_deg": -4.239952229499554e-06,
      "longitude_deg": 149.56730344433535,
      "height_km": 476.1248468496902,
      "semi_major_axis_km": 6853.407701777376,
      "eccentricity": 0.0001183,
      "inclination_deg": 53.1592,
      "raan_deg": 309.8147,
      "arg_perigee_deg": 86.8919,
      "mean_anomaly_deg": 273.2217,
      "mean_motion_rev_day": 15.30181368
    },
    {
      "epoch": "2026-04-28T19:48:28.424736Z",
      "apogee_km": 476.043829138589,
      "perigee_km": 474.42369229075666,
      "latitude_deg": -9.467490122772618e-06,
      "longitude_deg": 151.3491291009345,
      "height_km": 476.15098387805205,
      "semi_major_axis_km": 6853.3707607146725,
      "eccentricity": 0.0001182,
      "inclination_deg": 53.1589,
      "raan_deg": 305.2628,
      "arg_perigee_deg": 91.3544,
      "mean_anomaly_deg": 268.7592,
      "mean_motion_rev_day": 15.3019374
    },
    {
      "epoch": "2026-04-29T17:45:13.216320Z",
      "apogee_km": 476.11672570042265,
      "perigee_km": 474.3403333551696,
      "latitude_deg": 6.299538602470825e-05,
      "longitude_deg": 177.0126708311035,
      "height_km": 476.12453249169903,
      "semi_major_axis_km": 6853.365529527796,
      "eccentricity": 0.0001296,
      "inclination_deg": 53.1592,
      "raan_deg": 301.0142,
      "arg_perigee_deg": 89.8749,
      "mean_anomaly_deg": 270.2401,
      "mean_motion_rev_day": 15.30195492
    },
    {
      "epoch": "2026-04-30T10:59:47.815584Z",
      "apogee_km": 476.0140055798329,
      "perigee_km": 474.35742041364756,
      "latitude_deg": -1.1744746005363425e-05,
      "longitude_deg": -85.67709116062645,
      "height_km": 476.1088479360121,
      "semi_major_axis_km": 6853.32271299674,
      "eccentricity": 0.00012086,
      "inclination_deg": 53.1587,
      "raan_deg": 297.6768,
      "arg_perigee_deg": 91.7372,
      "mean_anomaly_deg": 268.3767,
      "mean_motion_rev_day": 15.30209832
    }
  ]
}